HULIANWANG DIGUI-61     
1 65167U 25174D   26090.85212968  .00000165  00000+0  34918-3 0  9991
2 65167  86.4901 278.1586 0001631 104.1184 256.0132 13.24417089 30553
HULIANWANG DIGUI-62     
1 65168U 25174E   26090.85963376  .00000157  00000+0  33088-3 0  9996
2 65168  86.4843 278.0304 0001727 103.4625 256.6702 13.24416049 30558
HULIANWANG DIGUI-63     
1 65169U 25174F   26090.86702962  .00000098  00000+0  19332-3 0  9990
2 65169  86.4895 278.1508 0001645 104.7529 255.3787 13.24429545 30553
HULIANWANG DIGUI-64     
1 65170U 25174G   26090.87472807  .00000139  00000+0  29070-3 0  9991
2 65170  86.4855 278.0630 0001711 102.6733 257.4592 13.24416017 30551
HULIANWANG DIGUI-65     
1 65171U 25174H   26090.81423994  .00000026  00000+0  25476-4 0  9991
2 65171  86.4818 278.0135 0001579 102.0110 258.1201 13.24415607 30544
HULIANWANG DIGUI-66     
1 65172U 25174J   26090.80671159  .00000102  00000+0  20388-3 0  9990
2 65172  86.4853 278.0912 0001664  99.9733 260.1589 13.24416014 30542
HULIANWANG DIGUI-67     
1 65173U 25174K   26090.82186262  .00000036  00000+0  49512-4 0  9996
2 65173  86.4864 278.1227 0001615 100.8649 259.2667 13.24415056 30517
HULIANWANG DIGUI-68     
1 65228U 25178A   26090.84441179  .00000032  00000+0  39437-4 0  9995
2 65228  86.4992  39.6148 0001913  70.8108 289.3233 13.24409368 30072
HULIANWANG DIGUI-69     
1 65229U 25178B   26090.83719913  .00000029  00000+0  32403-4 0  9991
2 65229  86.5012  39.6573 0001887  73.9328 286.2014 13.24412104 30072
HULIANWANG DIGUI-70     
1 65230U 25178C   26090.82959485  .00000038  00000+0  53407-4 0  9999
2 65230  86.4951  39.5132 0001898  70.1584 289.9755 13.24411624 30078
HULIANWANG DIGUI-71     
1 65231U 25178D   26090.82201003  .00000050  00000+0  82170-4 0  9999
2 65231  86.5010  39.6448 0001901  71.0282 289.1058 13.24411365 30077
HULIANWANG DIGUI-72     
1 65232U 25178E   26090.88996266  .00000063  00000+0  11357-3 0  9990
2 65232  86.4993  39.5756 0001922  71.3905 288.7438 13.24410751 30082
HULIANWANG DIGUI-73     
1 65305U 25187A   26090.55191700 -.00000059  00000+0  14070-3 0  9996
2 65305  50.0036 124.3117 0000889 238.6516 121.4269 13.29323030 29372
HULIANWANG DIGUI-74     
1 65306U 25187B   26090.53518400 -.00000057  00000+0  14431-3 0  9994
2 65306  50.0078 124.2993 0000888 238.8796 121.1989 13.29323901 29374
HULIANWANG DIGUI-75     
1 65307U 25187C   26090.59373966 -.00000070  00000+0  11600-3 0  9997
2 65307  50.0070 123.9299 0000870 239.4996 120.5790 13.29322625 29388
HULIANWANG DIGUI-76     
1 65308U 25187D   26090.57721663 -.00000064  00000+0  12914-3 0  9999
2 65308  49.9995 124.3679 0000884 235.1002 124.9787 13.29324262 29377
HULIANWANG DIGUI-77     
1 65309U 25187E   26090.49353753 -.00000063  00000+0  13047-3 0  9999
2 65309  50.0029 124.6542 0001080 235.6546 124.4224 13.29323194 29361
HULIANWANG DIGUI-78     
1 65310U 25187F   26090.52696191 -.00000052  00000+0  15460-3 0  9990
2 65310  50.0094 124.2857 0000867 238.5276 121.5511 13.29322407 29378
HULIANWANG DIGUI-79     
1 65311U 25187G   26090.58523651 -.00000059  00000+0  13937-3 0  9991
2 65311  50.0025 124.4614 0000864 240.3655 119.7132 13.29324345 29376
HULIANWANG DIGUI-80     
1 65312U 25187H   26090.56033369 -.00000066  00000+0  12590-3 0  9994
2 65312  50.0014 124.3165 0001060 234.2625 125.8148 13.29322952 29370
HULIANWANG DIGUI-81     
1 65313U 25187J   26090.54366738 -.00000067  00000+0  12313-3 0  9996
2 65313  50.0054 124.3014 0000881 238.6478 121.4308 13.29323023 29383
HULIANWANG DIGUI-82     
1 65817U 25220A   26090.87845501  .00000057  00000+0  98666-4 0  9993
2 65817  86.4921  69.9605 0002426  79.8895 280.2513 13.24423669 24685
HULIANWANG DIGUI-83     
1 65818U 25220B   26090.87096664  .00000051  00000+0  84121-4 0  9997
2 65818  86.4944  69.9991 0002419  79.9091 280.2316 13.24422817 24685
HULIANWANG DIGUI-84     
1 65819U 25220C   26090.86337461  .00000040  00000+0  58923-4 0  9999
2 65819  86.4881  69.8766 0002390  79.6406 280.4997 13.24423294 24687
HULIANWANG DIGUI-85     
1 65820U 25220D   26090.85576409  .00000027  00000+0  28653-4 0  9999
2 65820  86.4942  69.9888 0002421  80.3309 279.8098 13.24423854 24685
HULIANWANG DIGUI-86     
1 65821U 25220E   26090.84832027  .00000019  00000+0  10031-4 0  9992
2 65821  86.4921  69.9447 0002411  80.2406 279.9000 13.24422660 24688
HULIANWANG DIGUI-87     
1 65995U 25231A   26090.80559937 -.00000061  00000+0  13543-3 0  9996
2 65995  49.9988  93.3947 0000739 297.9930  62.0867 13.29327809 22597
HULIANWANG DIGUI-88     
1 65996U 25231B   26090.81397644 -.00000068  00000+0  11997-3 0  9991
2 65996  49.9975  93.4220 0000818 300.7425  59.3367 13.29331608 22595
HULIANWANG DIGUI-89     
1 65997U 25231C   26090.79724343 -.00000074  00000+0  10885-3 0  9991
2 65997  49.9952  93.3048 0000816 302.2135  57.8658 13.29328082 22599
HULIANWANG DIGUI-90     
1 65998U 25231D   26090.71370516 -.00000101  00000+0  49862-4 0  9992
2 65998  49.9989  93.5704 0000793 302.4754  57.6041 13.29329670 22581
HULIANWANG DIGUI-91     
1 65999U 25231E   26090.78054007 -.00000075  00000+0  10586-3 0  9994
2 65999  50.0001  93.2849 0000797 301.7959  58.2835 13.29328883 22594
HULIANWANG DIGUI-92     
1 66000U 25231F   26090.84735939 -.00000058  00000+0  14203-3 0  9996
2 66000  50.0042  93.0249 0000785 301.3496  58.7300 13.29326866 22607
HULIANWANG DIGUI-93     
1 66001U 25231G   26090.83068054 -.00000065  00000+0  12714-3 0  9996
2 66001  50.0009  92.8987 0000798 302.3142  57.7653 13.29331894 22607
HULIANWANG DIGUI-94     
1 66002U 25231H   26090.83899590 -.00000069  00000+0  11964-3 0  9994
2 66002  50.0048  92.9942 0000802 302.0212  58.0582 13.29329400 22609
HULIANWANG DIGUI-95     
1 66003U 25231J   26090.82254986 -.00000067  00000+0  12184-3 0  9991
2 66003  50.0021  92.8729 0000796 299.9333  60.1460 13.29328068 22601
HULIANWANG DIGUI-96     
1 66412U 25258A   26090.77074231 -.00000090  00000+0  72442-4 0  9991
2 66412  50.0038 213.2924 0000646 200.0213 160.0634 13.29333545 19439
HULIANWANG DIGUI-97     
1 66413U 25258B   26090.72893648 -.00000103  00000+0  45662-4 0  9997
2 66413  50.0002 213.6937 0000674 198.7030 161.3818 13.29334606 19426
HULIANWANG DIGUI-98     
1 66414U 25258C   26090.79570797 -.00000099  00000+0  54263-4 0  9993
2 66414  50.0039 213.4297 0000749 204.5618 155.5219 13.29336304 19433
HULIANWANG DIGUI-99     
1 66415U 25258D   26090.76237308 -.00000093  00000+0  66346-4 0  9998
2 66415  50.0037 213.2502 0000578 197.3804 162.7049 13.29333761 19429
HULIANWANG DIGUI-100    
1 66416U 25258E   26090.71217264 -.00000091  00000+0  72102-4 0  9998
2 66416  50.0041 213.6586 0000559 196.1372 163.9482 13.29336760 19434
HULIANWANG DIGUI-101    
1 66417U 25258F   26090.77904251 -.00000090  00000+0  73236-4 0  9992
2 66417  49.9991 213.2773 0000570 193.5918 166.4939 13.29334808 19447
HULIANWANG DIGUI-102    
1 66418U 25258G   26090.67873644 -.00000098  00000+0  55524-4 0  9991
2 66418  50.0005 213.4299 0000639 204.7581 155.3260 13.29336748 19426
HULIANWANG DIGUI-103    
1 66419U 25258H   26090.74560044 -.00000098  00000+0  57087-4 0  9993
2 66419  49.9998 213.1077 0000527 197.8895 162.1959 13.29335868 19436
HULIANWANG DIGUI-104    
1 66420U 25258J   26090.73727676 -.00000097  00000+0  57394-4 0  9990
2 66420  50.0015 213.0902 0000680 206.2048 153.8789 13.29335157 19420
HULIANWANG DIGUI-105    
1 66915U 25285A   26090.89158609 -.00000079  00000+0  97177-4 0  9993
2 66915  50.0053  63.4343 0000510  18.2305 341.8586 13.29333210 15772
HULIANWANG DIGUI-106    
1 66916U 25285B   26085.39484699 -.00518302  00000+0 -11575+1 0  9992
2 66916  50.0297  83.0708 0005653 210.3265 149.7281 13.29707727 15044
HULIANWANG DIGUI-107    
1 66917U 25285C   26090.87489183 -.00000078  00000+0  98874-4 0  9991
2 66917  50.0029  63.3249 0000451  17.2701 342.8186 13.29332712 15777
HULIANWANG DIGUI-108    
1 66918U 25285D   26090.86652081 -.00000078  00000+0  99731-4 0  9993
2 66918  50.0050  63.3027 0000457  19.3549 340.7341 13.29333385 15772
HULIANWANG DIGUI-109    
1 66919U 25285E   26090.85817469 -.00000084  00000+0  86809-4 0  9995
2 66919  50.0075  63.2843 0000463  18.6030 341.4859 13.29333255 15788
HULIANWANG DIGUI-110    
1 66920U 25285F   26090.84984122 -.00000079  00000+0  96221-4 0  9990
2 66920  50.0107  63.2729 0000478  18.5376 341.5513 13.29332621 15770
HULIANWANG DIGUI-111    
1 66921U 25285G   26090.84148866 -.00000081  00000+0  92009-4 0  9991
2 66921  50.0124  63.2461 0000469  18.7325 341.3565 13.29332588 15776
HULIANWANG DIGUI-112    
1 66922U 25285H   26090.83311845 -.00000075  00000+0  10575-3 0  9990
2 66922  50.0087  63.1675 0000488  19.4940 340.5951 13.29333310 15777
HULIANWANG DIGUI-113    
1 66923U 25285J   26090.89994818 -.00000078  00000+0  99808-4 0  9994
2 66923  50.0096  62.8637 0000486  18.6727 341.4163 13.29333004 15780
HULIANWANG DIGUI-114    
1 66953U 25287A   26090.78058704  .00000104  00000+0  20920-3 0  9999
2 66953  86.4923 308.5467 0001801  74.3845 285.7487 13.24417957 15096
HULIANWANG DIGUI-115    
1 66954U 25287B   26090.77301181  .00000097  00000+0  19283-3 0  9990
2 66954  86.4939 308.5625 0001812  71.8643 288.2688 13.24418149 15095
HULIANWANG DIGUI-116    
1 66955U 25287C   26090.84100925  .00000091  00000+0  17702-3 0  9990
2 66955  86.4878 308.4606 0001815  71.9033 288.2298 13.24418314 15106
HULIANWANG DIGUI-117    
1 66956U 25287D   26090.83353315  .00000082  00000+0  15586-3 0  9991
2 66956  86.4939 308.5304 0000811 145.5843 214.5344 13.24416478 15106
HULIANWANG DIGUI-118    
1 66957U 25287E   26090.90148265  .00000067  00000+0  12131-3 0  9992
2 66957  86.4915 308.4726 0001804  72.3161 287.8170 13.24417796 15116
HULIANWANG DIGUI-119    
1 67059U 25295A   26090.87210214 -.00000045  00000+0  16995-3 0  9994
2 67059  50.0039 303.0807 0000140 139.0318 221.0565 13.29323181 15210
HULIANWANG DIGUI-120    
1 67060U 25295B   26090.78021381 -.00000061  00000+0  13612-3 0  9992
2 67060  50.0045 303.2686 0000081 148.1726 211.9151 13.29323171 15201
